KUIPER-00071            
1 64818U 25151C   26027.46290138  .00005998  00000+0  81652-3 0  9996
2 64818  51.9005 125.3838 0007012  99.1374 261.0382 14.79853578 29169
KUIPER-00072            
1 64819U 25151D   26027.63856114  .00009034  00000+0  11605-2 0  9993
2 64819  51.8973 104.4521 0000624  57.4243 302.6780 14.81780691 29470
KUIPER-00073            
1 64820U 25151E   26027.56405754  .00005975  00000+0  81159-3 0  9999
2 64820  51.8991 124.9298 0003208 139.6445 220.4756 14.79960165 30361
KUIPER-00074            
1 64821U 25151F   26027.64491447  .00007193  00000+0  96927-3 0  9996
2 64821  51.9015 112.0905 0008718 135.8438 224.3222 14.80017947 29366
KUIPER-00075            
1 64822U 25151G   26027.40043604  .00057591  00000+0  14123-2 0  9993
2 64822  51.8730  62.5412 0003509 121.0579 239.0754 15.40155357 30032
KUIPER-00076            
1 64823U 25151H   26027.64193996  .00008492  00000+0  11371-2 0  9998
2 64823  51.9002 114.5928 0001597 159.4585 200.6442 14.80095421 29330
KUIPER-00077            
1 64824U 25151J   26027.63703552  .00008784  00000+0  11787-2 0  9998
2 64824  51.9012 119.6282 0003974 109.2724 250.8669 14.79967502 29266
KUIPER-00078            
1 64825U 25151K   26027.60599172  .00008740  00000+0  11738-2 0  9995
2 64825  51.8994 117.2569 0001562 171.8836 188.2152 14.79937606 29293
